2003 UY19,e,7.58431,51.09439,319.46194,2.4592598,0,0.5822018,225.18935,1/4/2010,2000.0,18.6,0.15
2003 UC20,e,3.79484,188.8607,59.28922,0.7813056,0,0.3367773,118.7629,1/4/2010,2000.0,18.1,0.15
2003 UD22,e,10.07821,253.90648,23.42849,1.1687041,0,0.318234,35.21049,1/4/2010,2000.0,19.7,0.15
2003 UE22,e,8.12784,29.43977,356.21131,2.3405418,0,0.5479763,262.55448,1/4/2010,2000.0,24.7,0.15
2003 UG22,e,20.29662,33.19134,280.63752,1.4240859,0,0.3542338,275.24795,1/4/2010,2000.0,21.4,0.15
2003 UO25,e,15.47412,211.90142,28.52075,1.0164104,0,0.228756,152.30961,1/4/2010,2000.0,22.7,0.15
2003 UP25,e,19.95314,29.5516,344.09537,1.266707,0,0.1560653,135.94433,1/4/2010,2000.0,23.7,0.15
2003 UQ25,e,2.12791,187.3625,276.72808,2.5383731,0,0.6807329,179.60904,1/4/2010,2000.0,24.1,0.15
2003 UR25,e,5.91288,23.69895,45.17362,1.948772,0,0.4981947,88.61352,1/4/2010,2000.0,25.5,0.15
2003 UX26,e,4.5491,35.36204,263.99606,1.155036,0,0.3656336,48.18839,1/4/2010,2000.0,24.5,0.15
2003 UW29,e,3.76219,196.71426,55.00826,1.1696272,0,0.8383748,8.2298,1/4/2010,2000.0,20.7,0.15
2003 UT55,e,16.78819,212.75605,287.2798,0.9794839,0,0.1486452,48.54481,1/4/2010,2000.0,26.8,0.15
2003 VE1,e,16.31139,29.66777,323.0771,1.9429279,0,0.495007,119.55806,1/4/2010,2000.0,19.4,0.15
2003 VF1,e,53.58722,47.01952,98.63664,1.675435,0,0.3788555,261.66745,1/4/2010,2000.0,17.3,0.15
2003 WE,e,5.35611,58.49332,285.22448,1.1973492,0,0.2407782,290.03747,1/4/2010,2000.0,24.6,0.15
2003 WG,e,27.1413,46.87564,261.83658,2.4405204,0,0.7834867,231.99477,1/4/2010,2000.0,19.1,0.15
2003 WP7,e,0.98817,249.50657,239.92191,2.2917555,0,0.6418125,259.8653,1/4/2010,2000.0,24.2,0.15
2003 WQ7,e,17.78248,38.77142,99.93897,1.8003758,0,0.4539859,155.94723,1/4/2010,2000.0,19.7,0.15
2003 WU21,e,28.59035,57.57995,140.63642,0.9090758,0,0.5449861,300.82113,1/4/2010,2000.0,22,0.15
2003 WL25,e,23.75442,267.1559,25.00721,2.3984399,0,0.7406736,273.95335,1/4/2010,2000.0,16.7,0.15
2003 WR25,e,8.99576,117.53189,245.24047,3.3574291,0,0.7098366,6.13876,1/4/2010,2000.0,19.6,0.15
2003 WY25,e,5.89578,68.95991,9.80182,3.050527,0,0.683661,46.00983,1/4/2010,2000.0,21.1,0.15
2003 WW26,e,6.30355,57.55287,254.7703,2.3963325,0,0.7990442,247.3028,1/4/2010,2000.0,22.5,0.15
2003 WW87,e,46.97757,46.15376,348.98514,2.5939613,0,0.5737043,163.8797,1/4/2010,2000.0,17,0.15
2003 WH98,e,3.52272,68.70034,353.49506,2.130949,0,0.5320102,347.46181,1/4/2010,2000.0,26.6,0.15
2003 WJ98,e,22.7884,66.87442,34.34549,1.2598091,0,0.2041818,87.98787,1/4/2010,2000.0,23.1,0.15
2003 WO151,e,19.79104,228.15468,330.76487,1.5451537,0,0.6631876,3.6584,1/4/2010,2000.0,20.4,0.15
2003 WT153,e,0.37205,55.46331,149.03356,0.8937843,0,0.1776067,329.2723,1/4/2010,2000.0,28,0.15
2003 WX153,e,32.62576,91.72384,62.81371,2.1860093,0,0.6022293,295.30938,1/4/2010,2000.0,17.9,0.15
2003 WY153,e,1.18173,210.903,211.32109,2.4758316,0,0.5941146,203.65913,1/4/2010,2000.0,24.4,0.15
2003 WE157,e,9.62785,226.56384,264.56665,2.2472547,0,0.5662844,271.4445,1/4/2010,2000.0,21.2,0.15
2003 WC158,e,8.99649,251.33231,144.14734,2.6310749,0,0.6324675,155.70639,1/4/2010,2000.0,20.5,0.15
2003 WD158,e,16.71155,92.34982,102.17592,1.4269457,0,0.4094349,133.61995,1/4/2010,2000.0,18.9,0.15
2003 WH166,e,0.68801,186.45179,328.35711,1.9330532,0,0.557579,67.11907,1/4/2010,2000.0,22,0.15
2003 XK,e,2.32915,245.99631,104.77319,2.3325604,0,0.712931,268.09623,1/4/2010,2000.0,25.9,0.15
2003 XM,e,5.61088,355.54219,156.05964,3.2031954,0,0.6781698,11.55199,1/4/2010,2000.0,19.4,0.15
2003 XV,e,4.81004,252.95477,231.08315,1.9237682,0,0.5523737,86.4204,1/4/2010,2000.0,26.9,0.15
2003 XJ7,e,18.17195,254.04284,271.71207,1.2428219,0,0.4657876,99.54069,1/4/2010,2000.0,26.4,0.15
2003 XH10,e,9.6374,70.62751,12.31232,1.3213368,0,0.2433128,356.07788,1/4/2010,2000.0,25.5,0.15
2003 XV10,e,11.56493,1.9513,321.38679,1.4350552,0,0.6796583,222.05374,1/4/2010,2000.0,19.5,0.15
2003 XZ12,e,12.44502,268.47774,198.53772,1.4391675,0,0.3132468,171.03531,1/4/2010,2000.0,24.4,0.15
2003 XB22,e,29.94393,108.85828,118.22365,1.4056004,0,0.393615,140.90219,1/4/2010,2000.0,19.3,0.15
2003 YJ,e,19.46638,89.80951,165.60062,0.9305149,0,0.1989062,113.69969,1/4/2010,2000.0,20.4,0.15
2003 YN1,e,5.24298,274.23568,147.93523,1.335455,0,0.2431164,345.66679,1/4/2010,2000.0,24.9,0.15
2003 YO1,e,14.25709,65.19415,161.38123,1.1576887,0,0.3991205,191.39699,1/4/2010,2000.0,19.4,0.15
2003 YP1,e,7.40166,277.85,130.04572,2.6415545,0,0.6494138,151.43942,1/4/2010,2000.0,21.8,0.15
2003 YR1,e,29.22387,86.44038,138.08282,0.8983213,0,0.4501771,307.23075,1/4/2010,2000.0,22.2,0.15
2003 YX1,e,5.75711,89.71699,223.0541,0.8795889,0,0.2669388,226.71453,1/4/2010,2000.0,20.9,0.15
2003 YO3,e,24.61294,291.43878,168.67928,1.4491563,0,0.3660105,148.78229,1/4/2010,2000.0,18.7,0.15
2003 YP3,e,37.23812,260.40283,282.16447,1.3473564,0,0.4927167,266.36651,1/4/2010,2000.0,20.2,0.15
2003 YN7,e,19.69238,94.3716,280.93793,2.7686589,0,0.6964952,125.98528,1/4/2010,2000.0,20.6,0.15
2003 YP17,e,4.90499,144.50749,30.99937,2.0001512,0,0.4869115,12.84802,1/4/2010,2000.0,19,0.15
2003 YS17,e,6.52532,99.17202,134.52833,0.9307663,0,0.3132469,151.73674,1/4/2010,2000.0,21.7,0.15
2003 YD45,e,8.40953,252.785,104.38425,2.4925099,0,0.6963265,207.35763,1/4/2010,2000.0,21,0.15
2003 YR70,e,2.66404,301.61269,222.47676,1.8953237,0,0.431202,86.38477,1/4/2010,2000.0,20,0.15
2003 YS70,e,0.35274,271.62048,195.61624,1.2876817,0,0.2368158,36.14959,1/4/2010,2000.0,29.1,0.15
2003 YT70,e,0.37588,74.08151,10.43452,1.5921038,0,0.3475612,6.28069,1/4/2010,2000.0,25.8,0.15
2003 YP94,e,8.14715,263.29959,211.75735,2.1636996,0,0.5337945,314.80886,1/4/2010,2000.0,23.8,0.15
2003 YQ94,e,8.52944,272.53092,85.74187,2.6531787,0,0.6184054,178.73243,1/4/2010,2000.0,17.6,0.15
2003 YN107,e,4.32035,264.46806,87.2026,0.9891749,0,0.0138658,131.87562,1/4/2010,2000.0,26.5,0.15
2003 YH111,e,4.3643,91.80075,84.21626,1.4180382,0,0.4861301,171.95203,1/4/2010,2000.0,24.5,0.15
2003 YR117,e,17.34765,94.95629,317.48079,1.8613682,0,0.5035893,146.98438,1/4/2010,2000.0,22.9,0.15
2003 YS117,e,29.55632,300.46136,322.03084,1.2494104,0,0.3304491,345.43415,1/4/2010,2000.0,18.3,0.15
2003 YG118,e,8.1284,348.57422,232.21118,2.2825039,0,0.6441288,230.60705,1/4/2010,2000.0,17.1,0.15
2003 YL118,e,7.61311,278.83105,65.58069,1.1300718,0,0.4862686,56.78566,1/4/2010,2000.0,21.6,0.15
2003 YG136,e,2.73381,86.54284,127.92276,0.9686747,0,0.3546642,35.54595,1/4/2010,2000.0,25.3,0.15
2003 YH136,e,16.05799,306.58688,304.27812,2.345835,0,0.8946185,229.29531,1/4/2010,2000.0,19.4,0.15
2004 AC,e,11.55632,13.6809,171.23055,1.8121294,0,0.673714,143.68599,1/4/2010,2000.0,19.1,0.15
2004 AD,e,7.29997,110.60305,302.37012,1.2583785,0,0.2625777,119.6748,1/4/2010,2000.0,24.4,0.15
2004 AE,e,18.72905,307.64789,193.05978,1.4322124,0,0.3328869,164.20012,1/4/2010,2000.0,20.7,0.15
2004 AD1,e,6.1817,300.12873,109.7971,1.9156178,0,0.5629965,109.18118,1/4/2010,2000.0,22.5,0.15
2004 AR1,e,9.07685,336.68173,50.11231,1.5765208,0,0.4695818,37.87084,1/4/2010,2000.0,19.8,0.15
2004 AS1,e,17.21426,322.60469,261.84592,1.0703737,0,0.1744743,49.51333,1/4/2010,2000.0,20.5,0.15
2004 AY1,e,5.52529,40.06084,2.15926,1.8881614,0,0.5732849,126.94329,1/4/2010,2000.0,21.1,0.15
2004 AE6,e,6.70478,298.04256,250.96756,1.4917793,0,0.3778489,63.34689,1/4/2010,2000.0,24.4,0.15
2004 BB,e,24.55648,129.76005,57.55728,1.9811854,0,0.5180994,21.49069,1/4/2010,2000.0,19.5,0.15
2004 BV1,e,12.10181,96.81859,223.04289,1.4615394,0,0.3645601,251.14709,1/4/2010,2000.0,19.9,0.15
2004 BX1,e,19.05956,93.47562,167.9633,2.3956327,0,0.8439407,195.42149,1/4/2010,2000.0,18.3,0.15
2004 BY1,e,3.61433,298.99216,28.19522,0.8841527,0,0.2220177,200.49153,1/4/2010,2000.0,24.5,0.15
2004 BE11,e,15.24911,138.32333,37.86616,1.2516641,0,0.1657418,35.9439,1/4/2010,2000.0,19.3,0.15
2004 BG11,e,34.11931,108.29607,83.80558,1.7761464,0,0.4871862,146.86114,1/4/2010,2000.0,18.6,0.15
2004 BH11,e,4.35216,309.69467,83.17273,1.2659026,0,0.3277746,115.37406,1/4/2010,2000.0,24.1,0.15
2004 BJ11,e,4.2688,269.09822,112.1706,1.750991,0,0.3978866,257.08493,1/4/2010,2000.0,21.7,0.15
2004 BL11,e,9.80817,142.49003,176.87434,1.2601716,0,0.7499875,171.58552,1/4/2010,2000.0,19.3,0.15
2004 BM11,e,3.63176,42.81109,175.15933,1.4504549,0,0.5256369,111.16438,1/4/2010,2000.0,22.1,0.15
2004 BV18,e,2.17286,302.11326,170.84722,1.3346394,0,0.2543614,314.39681,1/4/2010,2000.0,25.9,0.15
2004 BW18,e,5.11403,303.03239,200.92111,1.3723738,0,0.2529639,238.2381,1/4/2010,2000.0,22.5,0.15
2004 BZ18,e,22.61298,308.25403,112.65022,1.8666454,0,0.4373102,143.52564,1/4/2010,2000.0,21.2,0.15
2004 BG41,e,2.9543,301.75058,152.9314,2.5141272,0,0.61076,182.19218,1/4/2010,2000.0,24.4,0.15
2004 BH41,e,30.45412,123.23811,200.31888,1.1948506,0,0.5001674,332.51601,1/4/2010,2000.0,19.3,0.15
2004 BN41,e,0.39835,331.31293,145.47092,2.0487868,0,0.5167001,11.03299,1/4/2010,2000.0,26.1,0.15
2004 BO41,e,35.56317,337.8171,254.41632,1.0187407,0,0.4926798,235.23555,1/4/2010,2000.0,17.4,0.15
2004 BT58,e,17.66865,300.89446,45.81433,0.9608101,0,0.3849793,214.31664,1/4/2010,2000.0,22.1,0.15
2004 BW58,e,15.20773,132.72829,301.73166,1.4550196,0,0.3787232,175.4259,1/4/2010,2000.0,18.6,0.15
2004 BX58,e,14.00883,128.39416,344.57832,2.823211,0,0.622885,96.57296,1/4/2010,2000.0,19.7,0.15
2004 BD68,e,19.30975,172.18255,203.72482,1.9012034,0,0.8296682,117.76335,1/4/2010,2000.0,18.6,0.15
2004 BE68,e,15.74179,210.96515,191.11075,1.7596223,0,0.4443484,224.9442,1/4/2010,2000.0,18.4,0.15
2004 BZ74,e,16.60176,233.82298,121.34196,3.0501283,0,0.8920018,50.49958,1/4/2010,2000.0,18.7,0.15
2004 BB75,e,16.59012,132.24052,358.87259,1.8475137,0,0.4474218,130.86903,1/4/2010,2000.0,23.1,0.15
2004 BF85,e,3.68584,212.4712,18.27321,1.8002965,0,0.7182357,140.68091,1/4/2010,2000.0,20.4,0.15
2004 BE86,e,3.78165,154.79677,14.67286,1.440736,0,0.2373448,134.86084,1/4/2010,2000.0,20.9,0.15
2004 BG86,e,36.14819,146.74917,123.34757,1.3525182,0,0.6134605,234.46726,1/4/2010,2000.0,19.2,0.15
2004 BK86,e,2.24605,311.24698,262.312,1.426894,0,0.5042076,141.38213,1/4/2010,2000.0,25.4,0.15
